NORAD_CAT_ID,OBJECT_NAME,OBJECT_TYPE,EPOCH,MEAN_MOTION,ECCENTRICITY,INCLINATION,RA_OF_ASC_NODE,ARG_OF_PERICENTER,MEAN_ANOMALY,BSTAR,MEAN_MOTION_DOT,MEAN_MOTION_DDOT,TLE_LINE0,TLE_LINE1,TLE_LINE2,SEMIMAJOR_AXIS,PERIOD,APOGEE,PERIGEE,DECAYED
52299.0,STARLINK-3759,PAYLOAD,2024-07-06 17:45:52,15.08833701,0.0001206,53.2179,321.7848,90.2962,269.8168,-8.5283e-05,-1.645e-05,0.0,0 STARLINK-3759,1 52299U 22041AQ  24188.74018799 -.00001645  00000-0 -85283-4 0  9992,2 52299  53.2179 321.7848 0001206  90.2962 269.8168 15.08833701122276,6917.9,95.438,540.599,538.93,0.0
52299.0,STARLINK-3759,PAYLOAD,2024-07-07 01:42:47,15.08834483,0.0001215,53.218,320.2982,92.0848,268.0283,-6.453e-05,-1.315e-05,0.0,0 STARLINK-3759,1 52299U 22041AQ  24189.07138869 -.00001315  00000-0 -64530-4 0  9996,2 52299  53.2180 320.2982 0001215  92.0848 268.0283 15.08834483123542,6917.897,95.438,540.603,538.922,0.0
52299.0,STARLINK-3759,PAYLOAD,2024-07-07 19:12:02,15.08852393,0.0001229,53.2174,317.0267,91.8915,268.2218,0.00051877,7.981e-05,0.0,0 STARLINK-3759,1 52299U 22041AQ  24189.80002460  .00007981  00000-0  51877-3 0  9996,2 52299  53.2174 317.0267 0001229  91.8915 268.2218 15.08852393123654,6917.843,95.437,540.558,538.857,0.0
52299.0,STARLINK-3759,PAYLOAD,2024-07-08 12:41:17,15.08840801,0.0001588,53.2161,313.7549,83.6911,276.4262,0.00018457,2.651e-05,0.0,0 STARLINK-3759,1 52299U 22041AQ  24190.52866930  .00002651  00000-0  18457-3 0  9993,2 52299  53.2161 313.7549 0001588  83.6911 276.4262 15.08840801123762,6917.878,95.438,540.841,538.644,0.0
52299.0,STARLINK-3759,PAYLOAD,2024-07-08 14:16:40,15.08841311,0.0001271,53.2172,313.4588,79.8955,280.218,0.00018934,2.727e-05,0.0,0 STARLINK-3759,1 52299U 22041AQ  24190.59490965  .00002727  00000-0  18934-3 0  9995,2 52299  53.2172 313.4588 0001271  79.8955 280.2180 15.08841311122553,6917.876,95.437,540.621,538.862,0.0
52299.0,STARLINK-3759,PAYLOAD,2024-07-09 14:07:27,15.08844355,0.0001204,53.2158,309.0,82.2654,277.8474,0.00014795,2.068e-05,0.0,0 STARLINK-3759,1 52299U 22041AQ  24191.58850752  .00002068  00000-0  14795-3 0  9998,2 52299  53.2158 309.0000 0001204  82.2654 277.8474 15.08844355122703,6917.867,95.437,540.565,538.899,0.0
52299.0,STARLINK-3759,PAYLOAD,2024-07-09 17:18:12,15.08851699,0.0001202,53.2161,308.4023,92.1591,267.9539,0.00023881,3.516e-05,0.0,0 STARLINK-3759,1 52299U 22041AQ  24191.72098365  .00003516  00000-0  23881-3 0  9993,2 52299  53.2161 308.4023 0001202  92.1591 267.9539 15.08851699123941,6917.845,95.437,540.541,538.878,0.0
52299.0,STARLINK-3759,PAYLOAD,2024-07-10 01:15:08,15.08843493,0.0001205,53.216,306.9161,91.0776,269.0354,0.0001019,1.334e-05,0.0,0 STARLINK-3759,1 52299U 22041AQ  24192.05218671  .00001334  00000-0  10190-3 0  9999,2 52299  53.2160 306.9161 0001205  91.0776 269.0354 15.08843493123998,6917.87,95.437,540.568,538.901,0.0
52299.0,STARLINK-3759,PAYLOAD,2024-07-10 13:58:14,15.08839723,0.0001238,53.2134,304.5368,90.5845,269.5289,8.7977e-05,1.113e-05,0.0,0 STARLINK-3759,1 52299U 22041AQ  24192.58211013  .00001113  00000-0  87977-4 0  9993,2 52299  53.2134 304.5368 0001238  90.5845 269.5289 15.08839723122856,6917.881,95.438,540.603,538.89,0.0
52299.0,STARLINK-3759,PAYLOAD,2024-07-11 13:49:01,15.08845892,0.0001142,53.216,300.0752,104.6831,255.4288,9.3329e-05,1.198e-05,0.0,0 STARLINK-3759,1 52299U 22041AQ  24193.57570747  .00001198  00000-0  93329-4 0  9996,2 52299  53.2160 300.0752 0001142 104.6831 255.4288 15.08845892123004,6917.862,95.437,540.517,538.937,0.0
52299.0,STARLINK-3759,PAYLOAD,2024-07-12 13:39:48,15.08842664,0.000122,53.2168,295.617,92.4046,267.7086,0.00020244,2.936e-05,0.0,0 STARLINK-3759,1 52299U 22041AQ  24194.56931129  .00002936  00000-0  20244-3 0  9997,2 52299  53.2168 295.6170 0001220  92.4046 267.7086 15.08842664124371,6917.872,95.437,540.581,538.893,0.0
52299.0,STARLINK-3759,PAYLOAD,2024-07-13 13:30:36,15.08834036,0.0001335,53.2177,291.1625,109.8495,250.2641,-3.0668e-05,-7.76e-06,0.0,0 STARLINK-3759,1 52299U 22041AQ  24195.56292207 -.00000776  00000-0 -30668-4 0  9999,2 52299  53.2177 291.1625 0001335 109.8495 250.2641 15.08834036124520,6917.899,95.438,540.687,538.84,0.0
52299.0,STARLINK-3759,PAYLOAD,2024-07-14 13:21:22,15.08853521,0.000126,53.2161,286.6979,88.1892,271.9245,0.00028139,4.195e-05,0.0,0 STARLINK-3759,1 52299U 22041AQ  24196.55650896  .00004195  00000-0  28139-3 0  9997,2 52299  53.2161 286.6979 0001260  88.1892 271.9245 15.08853521124677,6917.839,95.437,540.576,538.832,0.0
52299.0,STARLINK-3759,PAYLOAD,2024-07-15 13:12:10,15.08840597,0.0001587,53.216,282.236,82.8969,277.2204,9.7159e-05,1.259e-05,0.0,0 STARLINK-3759,1 52299U 22041AQ  24197.55011627  .00001259  00000-0  97159-4 0  9998,2 52299  53.2160 282.2360 0001587  82.8969 277.2204 15.08840597124820,6917.879,95.438,540.841,538.646,0.0
52299.0,STARLINK-3759,PAYLOAD,2024-07-15 22:44:28,15.08839601,0.0001337,53.2149,280.4499,81.9984,278.116,3.5544e-06,-2.31e-06,0.0,0 STARLINK-3759,1 52299U 22041AQ  24197.94755551 -.00000231  00000-0  35544-5 0  9993,2 52299  53.2149 280.4499 0001337  81.9984 278.1160 15.08839601123666,6917.882,95.438,540.672,538.822,0.0
52299.0,STARLINK-3759,PAYLOAD,2024-07-16 13:02:56,15.08852644,0.0001299,53.2148,277.7727,80.4109,279.703,0.00019053,2.747e-05,0.0,0 STARLINK-3759,1 52299U 22041AQ  24198.54370846  .00002747  00000-0  19053-3 0  9998,2 52299  53.2148 277.7727 0001299  80.4109 279.7030 15.08852644123753,6917.842,95.437,540.605,538.808,0.0
52299.0,STARLINK-3759,PAYLOAD,2024-07-17 11:18:20,15.08841894,0.0001598,53.2167,273.6093,88.8057,271.3118,0.00014974,2.096e-05,0.0,0 STARLINK-3759,1 52299U 22041AQ  24199.47107497  .00002096  00000-0  14974-3 0  9995,2 52299  53.2167 273.6093 0001598  88.8057 271.3118 15.08841894125113,6917.875,95.437,540.845,538.634,0.0
52299.0,STARLINK-3759,PAYLOAD,2024-07-17 22:26:02,15.08844856,0.0001402,53.2149,271.5285,89.6371,270.4782,0.00019038,2.744e-05,0.0,0 STARLINK-3759,1 52299U 22041AQ  24199.93475386  .00002744  00000-0  19038-3 0  9997,2 52299  53.2149 271.5285 0001402  89.6371 270.4782 15.08844856123964,6917.866,95.437,540.7,538.761,0.0
52299.0,STARLINK-3759,PAYLOAD,2024-07-18 11:09:07,15.0884255,0.0001469,53.2156,269.1502,94.2887,265.8273,0.000198,2.865e-05,0.0,0 STARLINK-3759,1 52299U 22041AQ  24200.46467583  .00002865  00000-0  19800-3 0  9999,2 52299  53.2156 269.1502 0001469  94.2887 265.8273 15.08842550124046,6917.873,95.437,540.754,538.721,0.0
52299.0,STARLINK-3759,PAYLOAD,2024-07-19 04:38:22,15.08836701,0.000162,53.2156,265.8789,95.6636,264.454,8.2153e-05,1.02e-05,0.0,0 STARLINK-3759,1 52299U 22041AQ  24201.19331988  .00001020  00000-0  82153-4 0  9993,2 52299  53.2156 265.8789 0001620  95.6636 264.4540 15.08836701125372,6917.89,95.438,540.876,538.635,0.0
52299.0,STARLINK-3759,PAYLOAD,2024-07-19 10:59:55,15.08837127,0.0001564,53.2163,264.6898,95.1226,264.9945,5.5614e-05,5.97e-06,0.0,0 STARLINK-3759,1 52299U 22041AQ  24201.45828057  .00000597  00000-0  55614-4 0  9990,2 52299  53.2163 264.6898 0001564  95.1226 264.9945 15.08837127124191,6917.889,95.438,540.836,538.672,0.0
52299.0,STARLINK-3759,PAYLOAD,2024-07-20 10:50:42,15.08840006,0.0001427,53.2155,260.2309,88.2031,271.9125,9.3043e-05,1.193e-05,0.0,0 STARLINK-3759,1 52299U 22041AQ  24202.45187869  .00001193  00000-0  93043-4 0  9991,2 52299  53.2155 260.2309 0001427  88.2031 271.9125 15.08840006125566,6917.88,95.438,540.733,538.758,0.0
52299.0,STARLINK-3759,PAYLOAD,2024-07-20 20:23:01,15.08835055,0.0001367,53.2146,258.4465,84.7472,275.3676,4.8494e-05,4.84e-06,0.0,0 STARLINK-3759,1 52299U 22041AQ  24202.84932420  .00000484  00000-0  48494-4 0  9997,2 52299  53.2146 258.4465 0001367  84.7472 275.3676 15.08835055125625,6917.896,95.438,540.706,538.815,0.0
52299.0,STARLINK-3759,PAYLOAD,2024-07-21 09:06:07,15.08831747,0.0001382,53.2152,256.0673,83.6224,276.4926,4.9608e-05,5.02e-06,0.0,0 STARLINK-3759,1 52299U 22041AQ  24203.37924854  .00000502  00000-0  49608-4 0  9997,2 52299  53.2152 256.0673 0001382  83.6224 276.4926 15.08831747124484,6917.906,95.438,540.727,538.815,0.0
52299.0,STARLINK-3759,PAYLOAD,2024-07-22 04:10:44,15.08837513,0.000136,53.2151,252.4971,78.197,281.9174,4.4384e-05,4.18e-06,0.0,0 STARLINK-3759,1 52299U 22041AQ  24204.17412797  .00000418  00000-0  44384-4 0  9996,2 52299  53.2151 252.4971 0001360  78.1970 281.9174 15.08837513125829,6917.888,95.438,540.694,538.812,0.0
52299.0,STARLINK-3759,PAYLOAD,2024-07-22 08:56:53,15.08839449,0.0001386,53.2152,251.6058,80.0193,280.0955,5.8753e-05,6.47e-06,0.0,0 STARLINK-3759,1 52299U 22041AQ  24204.37284624  .00000647  00000-0  58753-4 0  9993,2 52299  53.2152 251.6058 0001386  80.0193 280.0955 15.08839449124639,6917.882,95.438,540.706,538.788,0.0
52299.0,STARLINK-3759,PAYLOAD,2024-07-23 08:47:40,15.08843075,0.0001492,53.2159,247.1443,103.9201,256.1957,0.0001176,1.584e-05,0.0,0 STARLINK-3759,1 52299U 22041AQ  24205.36644242  .00001584  00000-0  11760-3 0  9996,2 52299  53.2159 247.1443 0001492 103.9201 256.1957 15.08843075126006,6917.871,95.437,540.768,538.704,0.0
52299.0,STARLINK-3759,PAYLOAD,2024-07-24 10:13:51,15.08833761,0.0001419,53.2152,242.3852,92.7828,267.3327,-3.0603e-05,-7.75e-06,0.0,0 STARLINK-3759,1 52299U 22041AQ  24206.42629529 -.00000775  00000-0 -30603-4 0  9996,2 52299  53.2152 242.3852 0001419  92.7828 267.3327 15.08833761126162,6917.899,95.438,540.746,538.783,0.0
52299.0,STARLINK-3759,PAYLOAD,2024-07-25 06:53:51,15.08845946,0.0001215,53.2147,238.5193,114.7282,245.3837,-5.616e-06,-3.77e-06,0.0,0 STARLINK-3759,1 52299U 22041AQ  24207.28740664 -.00000377  00000-0 -56160-5 0  9990,2 52299  53.2147 238.5193 0001215 114.7282 245.3837 15.08845946125073,6917.862,95.437,540.568,538.887,0.0
52299.0,STARLINK-3759,PAYLOAD,2024-07-25 11:40:01,15.08841179,0.0001374,53.2148,237.6266,95.5776,264.5372,0.00012586,1.716e-05,0.0,0 STARLINK-3759,1 52299U 22041AQ  24207.48612650  .00001716  00000-0  12586-3 0  9993,2 52299  53.2148 237.6266 0001374  95.5776 264.5372 15.08841179126325,6917.877,95.437,540.692,538.791,0.0
